0001P         1986 02  3.2531  0.571265  0.968011  111.7738   58.9176  162.2390  20150104   5.5  3.2  1P/Halley                                                 98, 1083
0002P         2013 11 21.7318  0.336024  0.848304  186.5423  334.5687   11.7812  20150104  11.5  6.0  2P/Encke                                                 NK   2573
0004P         2014 05 29.6732  1.655017  0.568901  205.1066  199.2512    9.0505  20150104   8.0  6.0  4P/Faye                                                  MPEC 2015-A10
0006P         2015 03  2.4356  1.361509  0.611425  178.1229  138.9335   19.4817  20150104   7.5 16.0  6P/d'Arrest                                              MPC 87918
0007P         2015 01 30.5255  1.239212  0.637538  172.5069   93.4161   22.3350  20150104  10.0  6.0  7P/Pons-Winnecke                                         MPC 79347
0008P         2021 08 27.1729  1.021810  0.820431  207.4835  270.3563   55.0739  20150104   8.0  8.0  8P/Tuttle                                                MPC 75715
0009P         2016 08  2.4449  1.538774  0.510484  179.2367   68.8479   10.4850  20150104   5.5 10.0  9P/Tempel                                                MPC 84319
0010P         2015 11 14.2770  1.417798  0.537242  195.5449  117.8064   12.0289  20150104   5.0 10.0  10P/Tempel                                               MPC 79344
0011P         2014 08 26.9399  1.548622  0.546016  164.0772  240.4333   13.5751  20150104  17.0  4.0  11P/Tempel-Swift-LINEAR                                  MPC 89730
0012P         2024 04 22.4509  0.772213  0.954451  199.1406  255.9907   74.4605  20150104   5.0  6.0  12P/Pons-Brooks                                           27,  604
0013P         2024 06 27.1071  1.158237  0.930549   64.3844   86.2826   44.6566  20150104   5.0  6.0  13P/Olbers                                                27,  604
0014P         2017 12  2.6352  2.741121  0.355602  159.1538  202.1302   27.9124  20150104   5.5 12.0  14P/Wolf                                                 MPC 75715
0015P         2014 12 27.0568  0.975903  0.720174  347.5529   13.7777    6.7990  20150104  12.0  4.0  15P/Finlay                                               MPC 89011
0016P         2014 06  7.5976  1.466487  0.562890  219.6777  159.3000    4.2586  20150104   7.5 10.0  16P/Brooks                                               MPEC 2015-A10
0017P         2014 03 27.5310  2.056803  0.431766   24.5279  326.7643   19.0917  20150104  10.0  6.0  17P/Holmes                                               MPC 83523
0019P         2015 05 28.9092  1.348984  0.625485  353.4528   75.3788   30.3677  20150104   4.5 10.0  19P/Borrelly                                             MPC 79344
0021P         2012 02 11.0664  1.031158  0.706619  172.5554  195.4022   31.9035  20150104   9.0  6.0  21P/Giacobini-Zinner                                     MPC 79024
0022P         2015 10 25.0767  1.558656  0.547699  162.8703  120.8747    4.7373  20150104   3.0 10.4  22P/Kopff                                                MPC 87068
0023P         1989 09 22.0264  0.474093  0.972042  130.1464  311.0018   19.4912  20150104   7.8  3.2  23P/Brorsen-Metcalf                                      MPC 14747
0024P         2017 11 16.4877  1.206425  0.704841   57.9524   79.6994   11.7346  20150104   6.5 14.0  24P/Schaumasse                                           MPC 56804
0026P         2013 07  6.0730  1.085139  0.640306    2.1459  211.5363   22.4301  20150104  12.0 16.0  26P/Grigg-Skjellerup                                     MPC 84319
0027P         2011 08  4.2436  0.747933  0.919099  196.0557  250.6009   29.0603  20150104  12.0  8.0  27P/Crommelin                                            MPC 78188
0028P         2021 03 17.5523  1.578213  0.772347  347.6326  346.3506   14.3185  20150104   8.5  6.0  28P/Neujmin                                              MPC 75715
0029P         2019 04  9.5404  5.758612  0.041806   50.1664  312.4143    9.3764  20150104   4.0  4.0  29P/Schwassmann-Wachmann                                 MPC 79344
0030P         2017 08 18.8325  1.877452  0.502307   13.1907  119.7273    8.1299  20150104   9.5  6.0  30P/Reinmuth                                             NK   2729
0031P         2010 10  1.7894  3.422617  0.194133   18.1622  114.1503    4.5472  20150104   5.0  8.0  31P/Schwassmann-Wachmann                                 MPC 79344
0032P         2014 10 17.5753  2.001140  0.556296   53.3346   57.8420    9.9691  20150104   6.5  8.0  32P/Comas Sola                                           MPEC 2015-A10
0033P         2016 08 22.3147  2.160238  0.463385   19.0232   66.5100   22.3924  20150104  10.0 12.0  33P/Daniel                                               MPC 84320
0035P         1939 09  2.8079  0.749766  0.973749   29.4587  355.6109   63.5053  20150104   8.5  4.0  35P/Herschel-Rigollet                                     15,  452
0036P         2011 12 22.5873  3.066186  0.262286  200.3771  181.9595    9.9386  20150104   8.5  6.0  36P/Whipple                                              MPC 75716
0037P         2011 12  7.7498  1.599285  0.536232  330.2139  314.6357    8.9801  20150104  10.5  4.8  37P/Forbes                                               MPC 80901
0038P         2018 11 10.3467  1.583373  0.859571  359.6015   78.0824   18.3803  20150104   3.5 12.0  38P/Stephan-Oterma                                        27,  605
0039P         2023 04 11.1723  5.715826  0.228087   90.0604  303.3002    1.4815  20150104   5.0  6.0  39P/Oterma                                               MPC 75716
0040P         2014 11 15.8150  1.819564  0.631557   47.2732  133.8402   11.4928  20150104   5.5 12.0  40P/Vaisala                                              MPC 86231
0041P         2017 04 14.1544  1.046804  0.660747   62.0994  141.0833    9.2291  20150104  10.0 16.0  41P/Tuttle-Giacobini-Kresak                              MPC 62882
0042P         2015 04  8.2773  2.027946  0.584075  147.1407  150.2812    3.9844  20150104  13.0  6.0  42P/Neujmin                                              MPC 79344
0043P         2016 08 19.5786  1.357453  0.594790  191.5751  249.8571   15.9682  20150104   8.0  6.0  43P/Wolf-Harrington                                      MPC 84320
0044P         2015 03 24.1568  2.118626  0.426549   58.2857  286.4663    5.8954  20150104   8.3  6.0  44P/Reinmuth                                             MPC 89313
0045P         2016 12 31.0745  0.531629  0.824164  326.2994   88.9990    4.2518  20150104  13.5  8.0  45P/Honda-Mrkos-Pajdusakova                              MPC 84320
0046P         2013 07  9.3209  1.052806  0.659074  356.3514   82.1669   11.7560  20150104   9.0  6.0  46P/Wirtanen                                             MPC 88330
0047P         2017 06 10.7848  2.816113  0.316781  357.8117  356.9885   13.0327  20150104   1.0 11.2  47P/Ashbrook-Jackson                                     NK   2718
0048P         2011 11 22.4349  2.084939  0.414135  208.5523  116.2613   13.6413  20150104  10.0  6.0  48P/Johnson                                              MPC 75716
0049P         2011 10 19.2912  1.426045  0.600189  332.9257  118.8311   19.0565  20150104  11.3  4.4  49P/Arend-Rigaux                                         MPC 79345
0050P         2016 02  8.1665  1.918504  0.530438   49.2261  355.1798   19.1378  20150104   9.5  6.0  50P/Arend                                                MPC 84320
0051P         2015 08 12.4581  1.699379  0.542447  269.3044   83.6950    5.4244  20150104  10.0  8.0  51P/Harrington                                           MPC 79345
0052P         2014 03  7.4965  1.773147  0.540374  139.6006  336.8510   10.2316  20150104  13.5  6.0  52P/Harrington-Abell                                     MPC 88330
0053P         2016 04 29.8807  2.428268  0.551361  134.1528  148.9220    6.6082  20150104   7.7  4.8  53P/Van Biesbroeck                                       MPC 84320
0054P         2017 04 15.6870  2.183276  0.424452    1.9372  358.8668    6.0584  20150104  10.0  6.0  54P/de Vico-Swift-NEAT                                   NK   2713
0055P         2031 06  7.3014  0.975222  0.905701  172.5958  235.3718  162.4406  20150104  10.0 10.0  55P/Tempel-Tuttle                                        MPC 31070
0056P         2016 07 18.4695  2.507729  0.506904   44.2509  345.9903    8.1476  20150104   8.5  6.0  56P/Slaughter-Burnham                                    MPC 75716
0057P         2015 05 22.2823  1.728787  0.499218  115.2176  188.8131    2.8479  20150104  12.5  6.0  57P/du Toit-Neujmin-Delporte                             MPC 79345
0058P         2012 04  9.6972  1.367916  0.663250  200.3045  160.5757   13.5229  20150104  15.5  6.0  58P/Jackson-Neujmin                                      MPC 65938
0059P         2018 09 16.0842  2.353409  0.476058  127.7934  312.8413    9.3458  20150104   7.0  6.0  59P/Kearns-Kwee                                          MPC 64498
0060P         2012 05 13.8313  1.618988  0.538651  216.4676  267.6729    3.6100  20150104  11.5  6.0  60P/Tsuchinshan                                          MPC 79654
0061P         2015 10  2.1661  2.113772  0.425915  221.9145  163.0208    6.0055  20150104   6.0 10.0  61P/Shajn-Schaldach                                      MPC 79345
0062P         2017 11 15.6974  1.382692  0.597950   30.2884   90.2913    9.7123  20150104   8.0 10.0  62P/Tsuchinshan                                          MPC 62881
0063P         2013 04 10.9204  1.950858  0.651061  169.0665  357.9853   19.7813  20150104  10.5  6.0  63P/Wild                                                 MPC 84320
0064P         2018 11  3.4474  1.389125  0.687912   97.1106  300.1013    8.9400  20150104   8.5 12.0  64P/Swift-Gehrels                                        MPC 66706
0065P         2017 10  6.9897  2.877497  0.259414  211.2791   63.9956    9.2118  20150104   5.0  6.0  65P/Gunn                                                 MPEC 2015-A10
